GLOBAL-2                
1 43812U 18099BG  26068.69955396  .00003970  00000+0  26145-3 0  9998
2 43812  97.3697 109.3280 0007454 127.1924 232.9986 15.08046936396919
STARLINK-3146           
1 49414U 21104G   26068.71560709  .00001951  00000+0  14065-3 0  9991
2 49414  53.2155 229.0031 0001221  76.5722 283.5406 15.08834117238635
