[{"OBJECT_NAME":"GLOBAL-2","OBJECT_ID":"2018-099BG","EPOCH":"2026-03-09T16:47:21.463008","MEAN_MOTION":15.08046936,"ECCENTRICITY":0.00074537,"INCLINATION":97.3697,"RA_OF_ASC_NODE":109.328,"ARG_OF_PERICENTER":127.1924,"MEAN_ANOMALY":232.9986,"EPHEMERIS_TYPE":0,"CLASSIFICATION_TYPE":"U","NORAD_CAT_ID":43812,"ELEMENT_SET_NO":999,"REV_AT_EPOCH":39691,"BSTAR":0.0002614533,"MEAN_MOTION_DOT":3.97e-5,"MEAN_MOTION_DDOT":0},{"OBJECT_NAME":"STARLINK-3146","OBJECT_ID":"2021-104G","EPOCH":"2026-03-09T17:10:28.452576","MEAN_MOTION":15.08834117,"ECCENTRICITY":0.00012206,"INCLINATION":53.2155,"RA_OF_ASC_NODE":229.0031,"ARG_OF_PERICENTER":76.5722,"MEAN_ANOMALY":283.5406,"EPHEMERIS_TYPE":0,"CLASSIFICATION_TYPE":"U","NORAD_CAT_ID":49414,"ELEMENT_SET_NO":999,"REV_AT_EPOCH":23863,"BSTAR":0.00014064841,"MEAN_MOTION_DOT":1.951e-5,"MEAN_MOTION_DDOT":0}]
